start=new Date('2022-07-09T00:00:00.000Z').valueOf();
sats=[{"COUNTRY_CODE":"US","LAUNCH_DATE":"2020-06-04","ARG_OF_PERICENTER":"79.6555","SEMIMAJOR_AXIS":"6925.266","TIME_SYSTEM":"UTC","REV_AT_EPOCH":"11677","RCS_SIZE":"LARGE","NORAD_CAT_ID":"45663","BSTAR":"0.00041515000000","MEAN_ELEMENT_THEORY":"SGP4","SITE":"AFETR","TLE_LINE1":"1 45663U 20035G   22189.78491117  .00005912  00000-0  41515-3 0  9990","OBJECT_ID":"2020-035G","APOAPSIS":"548.014","MEAN_MOTION":"15.06426967","OBJECT_NAME":"STARLINK-1446","EPOCH":"2022-07-08T18:50:16.325088","RA_OF_ASC_NODE":"321.6771","CLASSIFICATION_TYPE":"U","MEAN_MOTION_DOT":"0.00005912","GP_ID":"207692183","EPHEMERIS_TYPE":"0","PERIOD":"95.590","FILE":"3510087","ELEMENT_SET_NO":"999","MEAN_ANOMALY":"280.4578","INCLINATION":"53.0546","MEAN_MOTION_DDOT":"0.0000000000000","ECCENTRICITY":"0.00012750","TLE_LINE2":"2 45663  53.0546 321.6771 0001275  79.6555 280.4578 15.06426967116770","OBJECT_TYPE":"PAYLOAD","REF_FRAME":"TEME","CENTER_NAME":"EARTH","PERIAPSIS":"546.248","DECAY_DATE":null},{"NORAD_CAT_ID":"45665","RCS_SIZE":"LARGE","REV_AT_EPOCH":"11676","TIME_SYSTEM":"UTC","SEMIMAJOR_AXIS":"6925.332","LAUNCH_DATE":"2020-06-04","ARG_OF_PERICENTER":"74.0858","COUNTRY_CODE":"US","OBJECT_NAME":"STARLINK-1448","MEAN_MOTION":"15.06405391","APOAPSIS":"548.269","TLE_LINE1":"1 45665U 20035J   22189.75174333  .00002553  00000-0  19019-3 0  9999","OBJECT_ID":"2020-035J","SITE":"AFETR","MEAN_ELEMENT_THEORY":"SGP4","BSTAR":"0.00019019000000","ELEMENT_SET_NO":"999","MEAN_ANOMALY":"286.0301","FILE":"3510087","PERIOD":"95.592","EPHEMERIS_TYPE":"0","CLASSIFICATION_TYPE":"U","RA_OF_ASC_NODE":"321.8289","GP_ID":"207692433","MEAN_MOTION_DOT":"0.00002553","EPOCH":"2022-07-08T18:02:30.623712","DECAY_DATE":null,"CENTER_NAME":"EARTH","PERIAPSIS":"546.125","REF_FRAME":"TEME","OBJECT_TYPE":"PAYLOAD","TLE_LINE2":"2 45665  53.0579 321.8289 0001548  74.0858 286.0301 15.06405391116765","MEAN_MOTION_DDOT":"0.0000000000000","ECCENTRICITY":"0.00015480","INCLINATION":"53.0579"},{"EPOCH":"2022-07-08T18:07:48.403776","CLASSIFICATION_TYPE":"U","RA_OF_ASC_NODE":"321.7952","GP_ID":"207692684","MEAN_MOTION_DOT":"0.00004911","EPHEMERIS_TYPE":"0","PERIOD":"95.591","FILE":"3510087","MEAN_ANOMALY":"281.0784","ELEMENT_SET_NO":"999","INCLINATION":"53.0552","MEAN_MOTION_DDOT":"0.0000000000000","ECCENTRICITY":"0.00014650","TLE_LINE2":"2 45666  53.0552 321.7952 0001465  79.0370 281.0784 15.06425653116768","OBJECT_TYPE":"PAYLOAD","REF_FRAME":"TEME","CENTER_NAME":"EARTH","PERIAPSIS":"546.120","DECAY_DATE":null,"COUNTRY_CODE":"US","LAUNCH_DATE":"2020-06-04","ARG_OF_PERICENTER":"79.0370","SEMIMAJOR_AXIS":"6925.270","TIME_SYSTEM":"UTC","REV_AT_EPOCH":"11676","NORAD_CAT_ID":"45666","RCS_SIZE":"LARGE","BSTAR":"0.00034815000000","MEAN_ELEMENT_THEORY":"SGP4","SITE":"AFETR","TLE_LINE1":"1 45666U 20035K   22189.75542134  .00004911  00000-0  34815-3 0  9999","OBJECT_ID":"2020-035K","APOAPSIS":"548.149","MEAN_MOTION":"15.06425653","OBJECT_NAME":"STARLINK-1449"},{"REF_FRAME":"TEME","CENTER_NAME":"EARTH","PERIAPSIS":"546.428","DECAY_DATE":null,"INCLINATION":"53.0557","MEAN_MOTION_DDOT":"0.0000000000000","ECCENTRICITY":"0.00011610","TLE_LINE2":"2 45667  53.0557 321.8219 0001161  85.8381 274.2740 15.06394107116766","OBJECT_TYPE":"PAYLOAD","FILE":"3510087","MEAN_ANOMALY":"274.2740","ELEMENT_SET_NO":"999","EPOCH":"2022-07-08T18:11:46.485024","CLASSIFICATION_TYPE":"U","RA_OF_ASC_NODE":"321.8219","MEAN_MOTION_DOT":"0.00000162","GP_ID":"207693435","EPHEMERIS_TYPE":"0","PERIOD":"95.593","APOAPSIS":"548.036","MEAN_MOTION":"15.06394107","OBJECT_NAME":"STARLINK-1450","BSTAR":"0.00002976000000","MEAN_ELEMENT_THEORY":"SGP4","SITE":"AFETR","OBJECT_ID":"2020-035L","TLE_LINE1":"1 45667U 20035L   22189.75817691  .00000162  00000-0  29760-4 0  9991","TIME_SYSTEM":"UTC","SEMIMAJOR_AXIS":"6925.367","REV_AT_EPOCH":"11676","RCS_SIZE":"LARGE","NORAD_CAT_ID":"45667","COUNTRY_CODE":"US","LAUNCH_DATE":"2020-06-04","ARG_OF_PERICENTER":"85.8381"},{"OBJECT_NAME":"STARLINK-1451","APOAPSIS":"548.225","MEAN_MOTION":"15.06416975","SITE":"AFETR","OBJECT_ID":"2020-035M","TLE_LINE1":"1 45668U 20035M   22189.79132955  .00002618  00000-0  19453-3 0  9994","BSTAR":"0.00019453000000","MEAN_ELEMENT_THEORY":"SGP4","REV_AT_EPOCH":"11637","NORAD_CAT_ID":"45668","RCS_SIZE":"LARGE","TIME_SYSTEM":"UTC","SEMIMAJOR_AXIS":"6925.297","COUNTRY_CODE":"US","ARG_OF_PERICENTER":"71.9500","LAUNCH_DATE":"2020-06-04","PERIAPSIS":"546.098","CENTER_NAME":"EARTH","DECAY_DATE":null,"REF_FRAME":"TEME","TLE_LINE2":"2 45668  53.0562 321.6670 0001536  71.9500 288.1657 15.06416975116373","OBJECT_TYPE":"PAYLOAD","INCLINATION":"53.0562","ECCENTRICITY":"0.00015360","MEAN_MOTION_DDOT":"0.0000000000000","MEAN_ANOMALY":"288.1657","ELEMENT_SET_NO":"999","FILE":"3510017","EPHEMERIS_TYPE":"0","PERIOD":"95.591","EPOCH":"2022-07-08T18:59:30.873120","MEAN_MOTION_DOT":"0.00002618","GP_ID":"207671447","CLASSIFICATION_TYPE":"U","RA_OF_ASC_NODE":"321.6670"},{"MEAN_ANOMALY":"285.0272","ELEMENT_SET_NO":"999","FILE":"3510087","PERIOD":"95.591","EPHEMERIS_TYPE":"0","MEAN_MOTION_DOT":"0.00002381","GP_ID":"207691934","CLASSIFICATION_TYPE":"U","RA_OF_ASC_NODE":"321.7316","EPOCH":"2022-07-08T18:34:20.245152","DECAY_DATE":null,"PERIAPSIS":"546.185","CENTER_NAME":"EARTH","REF_FRAME":"TEME","OBJECT_TYPE":"PAYLOAD","TLE_LINE2":"2 45669  53.0563 321.7316 0001433  75.0875 285.0272 15.06411669116777","ECCENTRICITY":"0.00014330","MEAN_MOTION_DDOT":"0.0000000000000","INCLINATION":"53.0563","NORAD_CAT_ID":"45669","RCS_SIZE":"LARGE","REV_AT_EPOCH":"11677","SEMIMAJOR_AXIS":"6925.313","TIME_SYSTEM":"UTC","ARG_OF_PERICENTER":"75.0875","LAUNCH_DATE":"2020-06-04","COUNTRY_CODE":"US","OBJECT_NAME":"STARLINK-1452","MEAN_MOTION":"15.06411669","APOAPSIS":"548.170","OBJECT_ID":"2020-035N","TLE_LINE1":"1 45669U 20035N   22189.77384543  .00002381  00000-0  17866-3 0  9998","SITE":"AFETR","MEAN_ELEMENT_THEORY":"SGP4","BSTAR":"0.00017866000000"},{"MEAN_ELEMENT_THEORY":"SGP4","BSTAR":"0.00077957000000","OBJECT_ID":"2020-035P","TLE_LINE1":"1 45670U 20035P   22189.69921576  .00011359  00000-0  77957-3 0  9996","SITE":"AFETR","MEAN_MOTION":"15.06432227","APOAPSIS":"548.142","OBJECT_NAME":"STARLINK-1453","LAUNCH_DATE":"2020-06-04","ARG_OF_PERICENTER":"68.0059","COUNTRY_CODE":"US","SEMIMAJOR_AXIS":"6925.250","TIME_SYSTEM":"UTC","NORAD_CAT_ID":"45670","RCS_SIZE":"LARGE","REV_AT_EPOCH":"11707","MEAN_MOTION_DDOT":"0.0000000000000","ECCENTRICITY":"0.00014830","INCLINATION":"53.0539","OBJECT_TYPE":"PAYLOAD","TLE_LINE2":"2 45670  53.0539 292.0829 0001483  68.0059 292.1087 15.06432227117072","REF_FRAME":"TEME","DECAY_DATE":null,"CENTER_NAME":"EARTH","PERIAPSIS":"546.088","RA_OF_ASC_NODE":"292.0829","CLASSIFICATION_TYPE":"U","MEAN_MOTION_DOT":"0.00011359","GP_ID":"207693185","EPOCH":"2022-07-08T16:46:52.241664","PERIOD":"95.590","EPHEMERIS_TYPE":"0","FILE":"3510087","ELEMENT_SET_NO":"999","MEAN_ANOMALY":"292.1087"},{"SEMIMAJOR_AXIS":"6925.279","TIME_SYSTEM":"UTC","NORAD_CAT_ID":"45671","RCS_SIZE":"LARGE","REV_AT_EPOCH":"11636","LAUNCH_DATE":"2020-06-04","ARG_OF_PERICENTER":"71.7354","COUNTRY_CODE":"US","MEAN_MOTION":"15.06422797","APOAPSIS":"548.003","OBJECT_NAME":"STARLINK-1454","MEAN_ELEMENT_THEORY":"SGP4","BSTAR":"0.00041910000000","OBJECT_ID":"2020-035Q","TLE_LINE1":"1 45671U 20035Q   22189.77753874  .00005970  00000-0  41910-3 0  9992","SITE":"AFETR","FILE":"3510017","MEAN_ANOMALY":"288.3770","ELEMENT_SET_NO":"999","CLASSIFICATION_TYPE":"U","RA_OF_ASC_NODE":"321.7140","GP_ID":"207671712","MEAN_MOTION_DOT":"0.00005970","EPOCH":"2022-07-08T18:39:39.347136","PERIOD":"95.591","EPHEMERIS_TYPE":"0","REF_FRAME":"TEME","DECAY_DATE":null,"CENTER_NAME":"EARTH","PERIAPSIS":"546.284","MEAN_MOTION_DDOT":"0.0000000000000","ECCENTRICITY":"0.00012410","INCLINATION":"53.0558","OBJECT_TYPE":"PAYLOAD","TLE_LINE2":"2 45671  53.0558 321.7140 0001241  71.7354 288.3770 15.06422797116369"},{"COUNTRY_CODE":"US","ARG_OF_PERICENTER":"68.1122","LAUNCH_DATE":"2020-06-04","REV_AT_EPOCH":"11719","NORAD_CAT_ID":"45672","RCS_SIZE":"LARGE","TIME_SYSTEM":"UTC","SEMIMAJOR_AXIS":"6925.278","SITE":"AFETR","OBJECT_ID":"2020-035R","TLE_LINE1":"1 45672U 20035R   22189.78767711  .00004795  00000-0  34038-3 0  9996","BSTAR":"0.00034038000000","MEAN_ELEMENT_THEORY":"SGP4","OBJECT_NAME":"STARLINK-1455","APOAPSIS":"548.199","MEAN_MOTION":"15.06422883","EPHEMERIS_TYPE":"0","PERIOD":"95.591","EPOCH":"2022-07-08T18:54:15.302304","GP_ID":"207692184","MEAN_MOTION_DOT":"0.00004795","CLASSIFICATION_TYPE":"U","RA_OF_ASC_NODE":"291.6799","MEAN_ANOMALY":"292.0029","ELEMENT_SET_NO":"999","FILE":"3510087","TLE_LINE2":"2 45672  53.0545 291.6799 0001524  68.1122 292.0029 15.06422883117195","OBJECT_TYPE":"PAYLOAD","INCLINATION":"53.0545","ECCENTRICITY":"0.00015240","MEAN_MOTION_DDOT":"0.0000000000000","PERIAPSIS":"546.088","CENTER_NAME":"EARTH","DECAY_DATE":null,"REF_FRAME":"TEME"},{"OBJECT_NAME":"STARLINK-1456","MEAN_MOTION":"15.06418246","APOAPSIS":"548.135","TLE_LINE1":"1 45673U 20035S   22189.79228049  .00003937  00000-0  28292-3 0  9996","OBJECT_ID":"2020-035S","SITE":"AFETR","MEAN_ELEMENT_THEORY":"SGP4","BSTAR":"0.00028292000000","RCS_SIZE":"LARGE","NORAD_CAT_ID":"45673","REV_AT_EPOCH":"11678","SEMIMAJOR_AXIS":"6925.293","TIME_SYSTEM":"UTC","ARG_OF_PERICENTER":"81.0833","LAUNCH_DATE":"2020-06-04","COUNTRY_CODE":"US","DECAY_DATE":null,"PERIAPSIS":"546.180","CENTER_NAME":"EARTH","REF_FRAME":"TEME","OBJECT_TYPE":"PAYLOAD","TLE_LINE2":"2 45673  53.0563 321.6434 0001412  81.0833 279.0316 15.06418246116781","ECCENTRICITY":"0.00014120","MEAN_MOTION_DDOT":"0.0000000000000","INCLINATION":"53.0563","ELEMENT_SET_NO":"999","MEAN_ANOMALY":"279.0316","FILE":"3510087","PERIOD":"95.591","EPHEMERIS_TYPE":"0","GP_ID":"207692434","MEAN_MOTION_DOT":"0.00003937","CLASSIFICATION_TYPE":"U","RA_OF_ASC_NODE":"321.6434","EPOCH":"2022-07-08T19:00:53.034336"}];
